STARLINK-2231           
1 48577U 21041AA  23143.11696829  .00025148  00000+0  17013-2 0  9997
2 48577  53.0548  37.6347 0001268  65.7430 294.3692 15.06396993111672
STARLINK-2232           
1 48578U 21041AB  23143.08017074  .00024538  00000+0  16610-2 0  9997
2 48578  53.0546  38.3129 0001189  61.9114 298.1995 15.06388328111666
STARLINK-2233           
1 48579U 21041AC  23142.84048936  .00023775  00000+0  16095-2 0  9991
2 48579  53.0546  38.8752 0001065  67.5674 292.5427 15.06402813111181
STARLINK-2234           
1 48580U 21041AD  23142.74050912  .00025447  00000+0  17219-2 0  9996
2 48580  53.0550  14.3271 0001240  57.6096 302.5013 15.06381852111526
STARLINK-2235           
1 48581U 21041AE  23143.03357150  .00016302  00000+0  11111-2 0  9999
2 48581  53.0549   3.0212 0001292 112.2141 247.8985 15.06388547112169
STARLINK-2236           
1 48582U 21041AF  23142.88247518  .00024000  00000+0  16252-2 0  9993
2 48582  53.0540   3.8517 0001311  55.8986 304.2127 15.06386250111689
STARLINK-2237           
1 48583U 21041AG  23143.02020968  .00021015  00000+0  14261-2 0  9990
2 48583  53.0547  48.0716 0001389  63.5727 296.5405 15.06384026111527
STARLINK-2238           
1 48584U 21041AH  23143.12707652  .00027339  00000+0  18467-2 0  9991
2 48584  53.0539  47.5901 0001226  68.9929 291.1191 15.06409054111489
STARLINK-2240           
1 48585U 21041AJ  23143.00546874  .00035448  00000+0  23869-2 0  9998
2 48585  53.0547  48.1339 0001108  62.5770 297.5332 15.06397053111464
STARLINK-2241           
1 48586U 21041AK  23142.86539333  .00018235  00000+0  12404-2 0  9992
2 48586  53.0530  48.7675 0001056 119.5109 240.5986 15.06385161111041
STARLINK-2242           
1 48587U 21041AL  23142.86908171  .00028285  00000+0  19108-2 0  9997
2 48587  53.0542  48.7494 0001175 137.1866 222.9215 15.06387931111048
STARLINK-2244           
1 48588U 21041AM  23142.84789803  .00019167  00000+0  13028-2 0  9999
2 48588  53.0550  38.8410 0001367  62.0635 298.0492 15.06380618111180
STARLINK-2245           
1 48589U 21041AN  23142.97690295  .00029125  00000+0  19665-2 0  9998
2 48589  53.0545  38.2652 0001258  64.8738 295.2381 15.06392280111656
STARLINK-2248           
1 48591U 21041AQ  23143.02755286  .00020233  00000+0  13737-2 0  9995
2 48591  53.0547  38.0363 0001157 136.0054 224.1027 15.06390083111612
STARLINK-2249           
1 48592U 21041AR  23142.83864839  .00020730  00000+0  14071-2 0  9993
2 48592  53.0557  48.9124 0001303 131.2668 228.8434 15.06384401111047
STARLINK-2250           
1 48593U 21041AS  23142.44518765  .00022698  00000+0  15392-2 0  9997
2 48593  53.0554  50.6514 0001218 124.3087 235.8017 15.06365292111289
STARLINK-2251           
1 48594U 21041AT  23142.67281935  .00027667  00000+0  18701-2 0  9997
2 48594  53.0548  19.7148 0001349  64.8534 295.2595 15.06378481111445
STARLINK-2252           
1 48595U 21041AU  23142.22771391  .00006220  00000+0  43640-3 0  9992
2 48595  53.0546  51.6257 0001251  72.4605 287.6521 15.06371322112224
STARLINK-2253           
1 48596U 21041AV  23143.11235097  .00024021  00000+0  16263-2 0  9999
2 48596  53.0549  47.6561 0001334 138.2973 221.8118 15.06394252111545
STARLINK-2255           
1 48597U 21041AW  23143.11972065  .00021796  00000+0  14779-2 0  9999
2 48597  53.0548  47.6258 0001324 131.9656 228.1446 15.06393491112353
STARLINK-2256           
1 48598U 21041AX  23142.85801792  .00020126  00000+0  13665-2 0  9997
2 48598  53.0542  48.7980 0001208 130.7739 229.3355 15.06391356111508
STARLINK-2274           
1 48599U 21041AY  23142.15446568  .00035099  00000+0  23665-2 0  9993
2 48599  53.0547  26.9553 0001255  56.6935 303.4174 15.06352787112569
STARLINK-2275           
1 48600U 21041AZ  23143.12064542  .00028461  00000+0  19215-2 0  9993
2 48600  53.0544  37.6182 0001237 118.3871 241.7243 15.06407140112498
STARLINK-2713           
1 48602U 21041BB  23142.78476583  .00019801  00000+0  13451-2 0  9992
2 48602  53.0547  24.1243 0001302 125.2723 234.8388 15.06382015112641
STARLINK-2714           
1 48603U 21041BC  23143.02940040  .00025389  00000+0  17174-2 0  9999
2 48603  53.0545  18.0323 0001267 126.2463 233.8643 15.06396129112760
STARLINK-2757           
1 48604U 21041BD  23142.43413310  .00032375  00000+0  21844-2 0  9991
2 48604  53.0562  50.6985 0001393  56.8302 303.2821 15.06365686112254
CAPELLA-6-WHITNEY       
1 48605U 21041BE  23142.85665835  .00032019  00000+0  19306-2 0  9994
2 48605  53.0301  79.1919 0012013   3.8334 356.2747 15.10448645110588
TYVAK-0130              
1 48606U 21041BF  23142.24557195  .00007574  00000+0  59445-3 0  9994
2 48606  53.0313  89.1943 0013432 345.3892  14.6704 15.01769744110381
SBIRS GEO-5 (USA 315)   
1 48618U 21042A   23142.76082595  .00000116  00000+0  00000+0 0  9996
2 48618   6.7815 325.5775 0001431  87.8334 121.5114  1.00273267  7518
HAIYANG-2D              
1 48621U 21043A   23143.14481748  .00000011  00000+0  84030-4 0  9991
2 48621  65.9974 215.7058 0008734 259.1563 100.8523 13.83370378101525
SPACEBEE-74             
1 48636U 21006FC  23142.66707712  .06270151  22805-5  31718-2 0  9990
2 48636  97.1300 188.0189 0013745 247.5108 112.4727 16.20430213129470
SPACEBEE-75             
1 48637U 21006FD  23143.06523493  .00897059  32474-3  33455-2 0  9995
2 48637  97.1386 187.6418 0008965 200.6335 159.4576 15.87952704129485
STARLINK-2758           
1 48638U 21044A   23142.78382168  .00019843  00000+0  13479-2 0  9995
2 48638  53.0546  24.1293 0001182 127.3309 232.7787 15.06381980109751
STARLINK-2739           
1 48639U 21044B   23142.37099112  .00033775  00000+0  22780-2 0  9990
2 48639  53.0547  25.9841 0001345  65.3254 294.7875 15.06359621110599
STARLINK-2736           
1 48640U 21044C   23142.82903859  .00024286  00000+0  16447-2 0  9994
2 48640  53.0550  24.2075 0001251  55.4363 304.6744 15.06377606109758
STARLINK-2754           
1 48641U 21044D   23143.10683055  .00026485  00000+0  17907-2 0  9995
2 48641  53.0545  27.6807 0001369  59.1906 300.9218 15.06390905110638
STARLINK-2646           
1 48642U 21044E   23142.98792933  .00021030  00000+0  14268-2 0  9995
2 48642  53.0546  28.2185 0001207 130.1165 229.9930 15.06392809110551
STARLINK-2704           
1 48643U 21044F   23143.10220044  .00018087  00000+0  12304-2 0  9997
2 48643  53.0557  27.6939 0001416  59.2195 300.8933 15.06388512110637
STARLINK-2695           
1 48644U 21044G   23142.83406834  .00026514  00000+0  17928-2 0  9991
2 48644  53.0557  28.9031 0001404  62.9008 297.2124 15.06387966110538
STARLINK-2733           
1 48645U 21044H   23142.83038637  .00026658  00000+0  18024-2 0  9991
2 48645  53.0545  28.9199 0001193  53.9777 306.1322 15.06386845109699
STARLINK-2732           
1 48646U 21044J   23142.82669854  .00021984  00000+0  14910-2 0  9999
2 48646  53.0545  28.9367 0001218  57.5311 302.5795 15.06379270109697
STARLINK-2691           
1 48647U 21044K   23142.82302232  .00028327  00000+0  19141-2 0  9993
2 48647  53.0556  28.9557 0000537   3.0092 357.0900 15.06378280109699
STARLINK-2521           
1 48648U 21044L   23141.97524804  .00022732  00000+0  15427-2 0  9997
2 48648  53.0557  32.9246 0000862   0.4606 359.6383 15.06336783109565
STARLINK-2673           
1 48649U 21044M   23143.08471982  .00020426  00000+0  13866-2 0  9993
2 48649  53.0542  27.7798 0001406  64.9720 295.1415 15.06388483110567
STARLINK-2672           
1 48650U 21044N   23142.81563616  .00026486  00000+0  17912-2 0  9999
2 48650  53.0544  28.9926 0001189  58.7086 301.4019 15.06382468109680
STARLINK-2731           
1 48651U 21044P   23143.07734008  .00027801  00000+0  18779-2 0  9998
2 48651  53.0542  27.8136 0001056  63.7474 296.3623 15.06400304110562
STARLINK-2727           
1 48652U 21044Q   23142.80826541  .00024078  00000+0  16309-2 0  9993
2 48652  53.0543  29.0222 0001036  74.6102 285.5002 15.06375006109683
STARLINK-2720           
1 48653U 21044R   23142.80457669  .00024337  00000+0  16483-2 0  9996
2 48653  53.0545  29.0367 0001203  59.9682 300.1426 15.06373370109687
STARLINK-2651           
1 48654U 21044S   23142.80089159  .00023504  00000+0  15923-2 0  9995
2 48654  53.0541  29.0539 0001234 127.5571 232.5530 15.06382781109688
STARLINK-2657           
1 48655U 21044T   23142.39911560  .00030983  00000+0  20922-2 0  9994
2 48655  53.0553  30.8562 0001191  72.3922 287.7197 15.06356507109629
STARLINK-2701           
1 48656U 21044U   23142.79351617  .00020554  00000+0  13954-2 0  9990
2 48656  53.0551  29.0858 0001175 127.1800 232.9297 15.06382846109686
STARLINK-2734           
1 48657U 21044V   23142.98887393  .00020168  00000+0  13694-2 0  9999
2 48657  53.0559  28.2108 0001093 123.6959 236.4134 15.06387869110613
STARLINK-2647           
1 48658U 21044W   23142.78614832  .00019654  00000+0  13353-2 0  9994
2 48658  53.0549  29.1252 0001221 131.8702 228.2392 15.06382278109682
STARLINK-2717           
1 48659U 21044X   23142.71611735  .00026654  00000+0  18028-2 0  9999
2 48659  53.0554  29.4340 0001295  57.6226 302.4888 15.06374280109675
STARLINK-2688           
1 48660U 21044Y   23142.97781345  .00033705  00000+0  22710-2 0  9992
2 48660  53.0552  28.2621 0001049  80.0036 280.1072 15.06397647110558
STARLINK-2708           
1 48661U 21044Z   23142.77969132  .00039449  00000+0  26531-2 0  9999
2 48661  53.0542  19.1493 0001151 110.5823 249.5290 15.06391711110727
STARLINK-2726           
1 48662U 21044AA  23142.97505380  .00017064  00000+0  11622-2 0  9997
2 48662  53.0542  18.2719 0001170 132.6142 227.4945 15.06382894110699
STARLINK-2667           
1 48663U 21044AB  23142.97136747  .00023492  00000+0  15912-2 0  9993
2 48663  53.0538  18.2890 0001157 127.9276 232.1817 15.06388982110690
STARLINK-2709           
1 48664U 21044AC  23143.03403210  .00020456  00000+0  13887-2 0  9990
2 48664  53.0540  18.0068 0001254 120.8323 239.2790 15.06386431110765
